[{"OBJECT_NAME":"SHIYAN-3 (SY-3)","OBJECT_ID":"2008-056A","EPOCH":"2026-03-09T16:28:21.411552","MEAN_MOTION":14.30765435,"ECCENTRICITY":0.00146908,"INCLINATION":98.6178,"RA_OF_ASC_NODE":96.1558,"ARG_OF_PERICENTER":69.2006,"MEAN_ANOMALY":291.0749,"EPHEMERIS_TYPE":0,"CLASSIFICATION_TYPE":"U","NORAD_CAT_ID":33433,"ELEMENT_SET_NO":999,"REV_AT_EPOCH":90457,"BSTAR":0.00010019007,"MEAN_MOTION_DOT":2.19e-6,"MEAN_MOTION_DDOT":0},{"OBJECT_NAME":"COSMOS 1275 DEB","OBJECT_ID":"1981-053N","EPOCH":"2026-03-09T20:22:23.849760","MEAN_MOTION":14.29584425,"ECCENTRICITY":0.00335189,"INCLINATION":82.9689,"RA_OF_ASC_NODE":222.5806,"ARG_OF_PERICENTER":24.6374,"MEAN_ANOMALY":100.6255,"EPHEMERIS_TYPE":0,"CLASSIFICATION_TYPE":"U","NORAD_CAT_ID":12658,"ELEMENT_SET_NO":999,"REV_AT_EPOCH":27604,"BSTAR":0.0010965837,"MEAN_MOTION_DOT":2.839e-5,"MEAN_MOTION_DDOT":0}]
